OBJECT_NAME,OBJECT_ID,EPOCH,MEAN_MOTION,ECCENTRICITY,INCLINATION,RA_OF_ASC_NODE,ARG_OF_PERICENTER,MEAN_ANOMALY,EPHEMERIS_TYPE,CLASSIFICATION_TYPE,NORAD_CAT_ID,ELEMENT_SET_NO,REV_AT_EPOCH,BSTAR,MEAN_MOTION_DOT,MEAN_MOTION_DDOT
SWARM A,2013-067B,2026-07-01T11:28:09.027264,15.51221847,.00032141,87.3308,50.9305,97.5429,262.6198,0,U,39452,999,70846,.18825998E-3,.11052E-3,0
SWARM C,2013-067C,2026-07-01T11:28:00.344928,15.51220913,.00032018,87.3307,49.5114,97.1439,263.0187,0,U,39453,999,70842,.19158703E-3,.11247E-3,0
BRITE-CA1 (TORONTO),2014-033L,2026-07-01T07:20:46.004928,14.72700128,.00775365,97.9757,310.9751,231.0662,128.3617,0,U,40020,999,64429,.16750932E-3,.1066E-4,0
OCO 2,2014-035A,2026-07-01T13:49:29.679744,14.57122899,.0001498,98.2019,123.6501,82.4971,277.6397,0,U,40059,999,63814,.10412281E-3,.424E-5,0
BRITE-PL2 (HEWELIUSZ),2014-049B,2026-07-01T07:09:40.121856,14.94645278,.00151408,97.9112,294.4083,65.3963,294.8832,0,U,40119,999,64355,.16731449E-3,.1757E-4,0
MMS 1,2015-011A,2026-07-01T14:00:01.999872,0.28250702,.83206483,72.2718,348.6556,167.6254,327.6234,0,U,40482,999,139,0,-.975E-5,0
MMS 2,2015-011B,2026-07-01T14:00:01.999872,0.28252724,.83233778,72.2750,348.6542,167.6296,327.6112,0,U,40483,999,139,0,-.976E-5,0
MMS 3,2015-011C,2026-07-01T14:00:01.999872,0.28250713,.83218164,72.2754,348.6664,167.6361,327.5873,0,U,40484,999,139,0,-.975E-5,0
MMS 4,2015-011D,2026-07-01T14:00:01.999872,0.28250662,.83217322,72.2716,348.6497,167.6458,327.5811,0,U,40485,999,139,0,-.975E-5,0
ASTROSAT,2015-052A,2026-07-01T00:24:26.251200,14.82531161,.00084809,5.9976,55.7929,235.1393,124.7937,0,U,40930,999,58188,.126935E-3,.1716E-4,0
DAMPE,2015-078A,2026-07-01T14:44:58.694208,15.30821551,.00130653,97.4552,188.1524,31.9057,328.2973,0,U,41173,999,58675,.4050118E-4,.1131E-4,0
PISAT,2016-059B,2026-07-01T10:45:24.112800,14.69008983,.00295768,97.8182,182.2883,157.1989,203.0538,0,U,41784,999,52183,.19558008E-3,.1107E-4,0
HXMT (HUIYAN),2017-034A,2026-07-01T06:37:53.766336,15.18579272,.0032623,43.0145,104.5830,236.0001,123.7747,0,U,42758,999,49980,.23468E-3,.4766E-4,0
FLYING LAPTOP,2017-042G,2026-07-01T15:35:43.552032,15.01238707,.00200159,97.4751,337.6318,75.5812,284.7632,0,U,42831,999,48862,.35368308E-3,.4505E-4,0
ZHANGHENG 1-01 (CSES-1),2018-015C,2026-07-01T14:43:12.756576,15.20998488,.00177007,97.6879,348.5592,213.1717,146.8409,0,U,43194,999,46683,.40244635E-3,.8891E-4,0
SALSAT,2020-068K,2026-07-01T11:15:52.774848,15.30000103,.00079905,97.8847,186.4054,246.9386,113.1011,0,U,46495,999,31754,.29884673E-3,.8603E-4,0
IXPE,2021-121A,2026-07-01T16:00:01.999584,15.10380858,.00072253,0.2292,207.9977,294.8902,125.2286,0,U,49954,999,580,.65223483E-3,.11976E-3,0
SMILE,2026-109A,2026-06-07T09:11:54.544416,7.54049028,.3310191,69.9787,209.3069,288.5544,45.7342,0,U,69123,999,248,-.36778157E-3,-.41E-6,0
