SWARM A                 
1 39452U 13067B   26182.47788226  .00011052  00000+0  18826-3 0  9999
2 39452  87.3308  50.9305 0003214  97.5429 262.6198 15.51221847708467
SWARM C                 
1 39453U 13067C   26182.47778177  .00011247  00000+0  19159-3 0  9990
2 39453  87.3307  49.5114 0003201  97.1439 263.0187 15.51220913708424
BRITE-CA1 (TORONTO)     
1 40020U 14033L   26182.30608802  .00001066  00000+0  16751-3 0  9998
2 40020  97.9757 310.9751 0077536 231.0662 128.3617 14.72700128644291
OCO 2                   
1 40059U 14035A   26182.57603796  .00000424  00000+0  10412-3 0  9993
2 40059  98.2019 123.6501 0001498  82.4971 277.6397 14.57122899638141
BRITE-PL2 (HEWELIUSZ)   
1 40119U 14049B   26182.29838104  .00001757  00000+0  16731-3 0  9997
2 40119  97.9112 294.4083 0015140  65.3963 294.8832 14.94645278643558
MMS 1                   
1 40482U 15011A   26182.58335648 -.00000975  00000+0  00000+0 0  9997
2 40482  72.2718 348.6556 8320648 167.6254 327.6234  0.28250702  1392
MMS 2                   
1 40483U 15011B   26182.58335648 -.00000976  00000+0  00000+0 0  9999
2 40483  72.2750 348.6542 8323377 167.6296 327.6112  0.28252724  1393
MMS 3                   
1 40484U 15011C   26182.58335648 -.00000975  00000+0  00000+0 0  9999
2 40484  72.2754 348.6664 8321816 167.6361 327.5873  0.28250713  1391
MMS 4                   
1 40485U 15011D   26182.58335648 -.00000975  00000+0  00000+0 0  9990
2 40485  72.2716 348.6497 8321732 167.6458 327.5811  0.28250662  1393
ASTROSAT                
1 40930U 15052A   26182.01697050  .00001716  00000+0  12694-3 0  9995
2 40930   5.9976  55.7929 0008480 235.1393 124.7937 14.82531161581882
DAMPE                   
1 41173U 15078A   26182.61456822  .00001131  00000+0  40501-4 0  9999
2 41173  97.4552 188.1524 0013065  31.9057 328.2973 15.30821551586755
PISAT                   
1 41784U 16059B   26182.44819575  .00001107  00000+0  19558-3 0  9996
2 41784  97.8182 182.2883 0029576 157.1989 203.0538 14.69008983521830
HXMT (HUIYAN)           
1 42758U 17034A   26182.27631674  .00004766  00000+0  23468-3 0  9994
2 42758  43.0145 104.5830 0032623 236.0001 123.7747 15.18579272499802
FLYING LAPTOP           
1 42831U 17042G   26182.64980963  .00004505  00000+0  35368-3 0  9997
2 42831  97.4751 337.6318 0020015  75.5812 284.7632 15.01238707488624
ZHANGHENG 1-01 (CSES-1) 
1 43194U 18015C   26182.61334209  .00008891  00000+0  40245-3 0  9996
2 43194  97.6879 348.5592 0017700 213.1717 146.8409 15.20998488466835
SALSAT                  
1 46495U 20068K   26182.46936082  .00008603  00000+0  29885-3 0  9992
2 46495  97.8847 186.4054 0007990 246.9386 113.1011 15.30000103317545
IXPE                    
1 49954U 21121A   26182.66668981  .00011976  00000+0  65223-3 0  9991
2 49954   0.2292 207.9977 0007225 294.8902 125.2286 15.10380858  5807
SMILE                   
1 69123U 26109A   26158.38327019 -.00000041  00000+0 -36778-3 0  9994
2 69123  69.9787 209.3069 3310191 288.5544  45.7342  7.54049028  2480
